[
    {
        "Altitude(m)": 571293.9127008147,
        "Argument of Periapsis(deg)": 0.019868973332140504,
        "Eccentricity": 0.0,
        "Inclination(deg)": 53.0,
        "Latitude(deg)": -51.733440686184586,
        "Longitude(deg)": 5.797562751382417,
        "Mean Anomaly(deg)": -78.81612139726718,
        "RAAN(deg)": 179.97043010558406,
        "Satellite Name": "Starlink Shell 1 807",
        "Satellite Number": 807,
        "Semi-Major Axis(m)": 6931778.249405717,
        "Time(s)": 570
    },
    {
        "Altitude(m)": 571231.3348472436,
        "Argument of Periapsis(deg)": 0.02021755181165174,
        "Eccentricity": 0.0,
        "Inclination(deg)": 53.0,
        "Latitude(deg)": -51.57370245914259,
        "Longitude(deg)": 6.727155859246284,
        "Mean Anomaly(deg)": -78.1892901937105,
        "RAAN(deg)": 179.96991133550657,
        "Satellite Name": "Starlink Shell 1 807",
        "Satellite Number": 807,
        "Semi-Major Axis(m)": 6931778.249405717,
        "Time(s)": 580
    },
    {
        "Altitude(m)": 571165.5201356957,
        "Argument of Periapsis(deg)": 0.020566130291162974,
        "Eccentricity": 0.0,
        "Inclination(deg)": 53.0,
        "Latitude(deg)": -51.40598771953778,
        "Longitude(deg)": 7.6498112242530185,
        "Mean Anomaly(deg)": -77.56245899015386,
        "RAAN(deg)": 179.9693925654291,
        "Satellite Name": "Starlink Shell 1 807",
        "Satellite Number": 807,
        "Semi-Major Axis(m)": 6931778.249405717,
        "Time(s)": 590
    },
    {
        "Altitude(m)": 571096.4947632389,
        "Argument of Periapsis(deg)": 0.020914708770674213,
        "Eccentricity": 0.0,
        "Inclination(deg)": 53.0,
        "Latitude(deg)": -51.23040097166471,
        "Longitude(deg)": 8.565289438600036,
        "Mean Anomaly(deg)": -76.9356277865971,
        "RAAN(deg)": 179.96887379535164,
        "Satellite Name": "Starlink Shell 1 807",
        "Satellite Number": 807,
        "Semi-Major Axis(m)": 6931778.249405717,
        "Time(s)": 600
    },
    {
        "Altitude(m)": 571024.2861995707,
        "Argument of Periapsis(deg)": 0.021263287250185448,
        "Eccentricity": 0.0,
        "Inclination(deg)": 53.0,
        "Latitude(deg)": -51.04704971291414,
        "Longitude(deg)": 9.473367272795153,
        "Mean Anomaly(deg)": -76.30879658304043,
        "RAAN(deg)": 179.96835502527415,
        "Satellite Name": "Starlink Shell 1 807",
        "Satellite Number": 807,
        "Semi-Major Axis(m)": 6931778.249405717,
        "Time(s)": 610
    },
    {
        "Altitude(m)": 570948.9231751035,
        "Argument of Periapsis(deg)": 0.021611865729696686,
        "Eccentricity": 0.0,
        "Inclination(deg)": 53.0,
        "Latitude(deg)": -50.85604415370723,
        "Longitude(deg)": 10.37383820746566,
        "Mean Anomaly(deg)": -75.68196537948369,
        "RAAN(deg)": 179.9678362551967,
        "Satellite Name": "Starlink Shell 1 807",
        "Satellite Number": 807,
        "Semi-Major Axis(m)": 6931778.249405717,
        "Time(s)": 620
    },
    {
        "Altitude(m)": 570870.4356684965,
        "Argument of Periapsis(deg)": 0.02196044420920792,
        "Eccentricity": 0.0,
        "Inclination(deg)": 53.0,
        "Latitude(deg)": -50.657496940157515,
        "Longitude(deg)": 11.26651121282548,
        "Mean Anomaly(deg)": -75.05513417592702,
        "RAAN(deg)": 179.96731748511922,
        "Satellite Name": "Starlink Shell 1 807",
        "Satellite Number": 807,
        "Semi-Major Axis(m)": 6931778.249405717,
        "Time(s)": 630
    },
    {
        "Altitude(m)": 570788.8548936592,
        "Argument of Periapsis(deg)": 0.02230902268871916,
        "Eccentricity": 0.0,
        "Inclination(deg)": 53.0,
        "Latitude(deg)": -50.451522880749906,
        "Longitude(deg)": 12.151211982448372,
        "Mean Anomaly(deg)": -74.42830297237026,
        "RAAN(deg)": 179.96679871504173,
        "Satellite Name": "Starlink Shell 1 807",
        "Satellite Number": 807,
        "Semi-Major Axis(m)": 6931778.249405717,
        "Time(s)": 640
    },
    {
        "Altitude(m)": 570704.2132861658,
        "Argument of Periapsis(deg)": 0.022657601168230398,
        "Eccentricity": 0.0,
        "Inclination(deg)": 53.0,
        "Latitude(deg)": -50.2382386782355,
        "Longitude(deg)": 13.027781582974841,
        "Mean Anomaly(deg)": -73.80147176881349,
        "RAAN(deg)": 179.96627994496427,
        "Satellite Name": "Starlink Shell 1 807",
        "Satellite Number": 807,
        "Semi-Major Axis(m)": 6931778.249405717,
        "Time(s)": 650
    },
    {
        "Altitude(m)": 570616.5444891803,
        "Argument of Periapsis(deg)": 0.023006179647741636,
        "Eccentricity": 0.0,
        "Inclination(deg)": 53.0,
        "Latitude(deg)": -50.01776266781063,
        "Longitude(deg)": 13.896076726973915,
        "Mean Anomaly(deg)": -73.17464056525685,
        "RAAN(deg)": 179.9657611748868,
        "Satellite Name": "Starlink Shell 1 807",
        "Satellite Number": 807,
        "Semi-Major Axis(m)": 6931778.249405717,
        "Time(s)": 660
    },
    {
        "Altitude(m)": 570525.8833388356,
        "Argument of Periapsis(deg)": 0.023354758127252868,
        "Eccentricity": 0.0,
        "Inclination(deg)": 53.0,
        "Latitude(deg)": -49.790214562544065,
        "Longitude(deg)": 14.755969992948753,
        "Mean Anomaly(deg)": -72.54780936170008,
        "RAAN(deg)": 179.96524240480932,
        "Satellite Name": "Starlink Shell 1 807",
        "Satellite Number": 807,
        "Semi-Major Axis(m)": 6931778.249405717,
        "Time(s)": 670
    },
    {
        "Altitude(m)": 570432.265849063,
        "Argument of Periapsis(deg)": 0.023703336606764106,
        "Eccentricity": 0.0,
        "Inclination(deg)": 53.0,
        "Latitude(deg)": -49.555715206900686,
        "Longitude(deg)": 15.60734848467681,
        "Mean Anomaly(deg)": -71.92097815814341,
        "RAAN(deg)": 179.96472363473185,
        "Satellite Name": "Starlink Shell 1 807",
        "Satellite Number": 807,
        "Semi-Major Axis(m)": 6931778.249405717,
        "Time(s)": 680
    },
    {
        "Altitude(m)": 570335.729195945,
        "Argument of Periapsis(deg)": 0.024051915086275345,
        "Eccentricity": 0.0,
        "Inclination(deg)": 53.0,
        "Latitude(deg)": -49.31438633908469,
        "Longitude(deg)": 16.45011396073326,
        "Mean Anomaly(deg)": -71.29414695458668,
        "RAAN(deg)": 179.9642048646544,
        "Satellite Name": "Starlink Shell 1 807",
        "Satellite Number": 807,
        "Semi-Major Axis(m)": 6931778.249405717,
        "Time(s)": 690
    },
    {
        "Altitude(m)": 570236.3117015307,
        "Argument of Periapsis(deg)": 0.024400493565786583,
        "Eccentricity": 0.0,
        "Inclination(deg)": 53.0,
        "Latitude(deg)": -49.066350362822405,
        "Longitude(deg)": 17.284182926394468,
        "Mean Anomaly(deg)": -70.66731575102999,
        "RAAN(deg)": 179.9636860945769,
        "Satellite Name": "Starlink Shell 1 807",
        "Satellite Number": 807,
        "Semi-Major Axis(m)": 6931778.249405717,
        "Time(s)": 700
    },
    {
        "Altitude(m)": 570134.0528171323,
        "Argument of Periapsis(deg)": 0.024749072045297815,
        "Eccentricity": 0.0,
        "Inclination(deg)": 53.0,
        "Latitude(deg)": -48.811730129092766,
        "Longitude(deg)": 18.10948518004889,
        "Mean Anomaly(deg)": -70.04048454747324,
        "RAAN(deg)": 179.96316732449944,
        "Satellite Name": "Starlink Shell 1 807",
        "Satellite Number": 807,
        "Semi-Major Axis(m)": 6931778.249405717,
        "Time(s)": 710
    },
    {
        "Altitude(m)": 570028.9931061452,
        "Argument of Periapsis(deg)": 0.025097650524809053,
        "Eccentricity": 0.0,
        "Inclination(deg)": 53.0,
        "Latitude(deg)": -48.55064872820174,
        "Longitude(deg)": 18.925963844726372,
        "Mean Anomaly(deg)": -69.41365334391648,
        "RAAN(deg)": 179.96264855442195,
        "Satellite Name": "Starlink Shell 1 807",
        "Satellite Number": 807,
        "Semi-Major Axis(m)": 6931778.249405717,
        "Time(s)": 720
    },
    {
        "Altitude(m)": 569921.1742263548,
        "Argument of Periapsis(deg)": 0.02544622900432029,
        "Eccentricity": 0.0,
        "Inclination(deg)": 53.0,
        "Latitude(deg)": -48.283229292503435,
        "Longitude(deg)": 19.733575376576347,
        "Mean Anomaly(deg)": -68.78682214035982,
        "RAAN(deg)": 179.96212978434448,
        "Satellite Name": "Starlink Shell 1 807",
        "Satellite Number": 807,
        "Semi-Major Axis(m)": 6931778.249405717,
        "Time(s)": 730
    },
    {
        "Altitude(m)": 569810.6389117921,
        "Argument of Periapsis(deg)": 0.02579480748383153,
        "Eccentricity": 0.0,
        "Inclination(deg)": 53.0,
        "Latitude(deg)": -48.009594809977166,
        "Longitude(deg)": 20.532288041920705,
        "Mean Anomaly(deg)": -68.15999093680317,
        "RAAN(deg)": 179.96161101426702,
        "Satellite Name": "Starlink Shell 1 807",
        "Satellite Number": 807,
        "Semi-Major Axis(m)": 6931778.249405717,
        "Time(s)": 740
    },
    {
        "Altitude(m)": 569697.4309540493,
        "Argument of Periapsis(deg)": 0.026143385963342765,
        "Eccentricity": 0.0,
        "Inclination(deg)": 53.0,
        "Latitude(deg)": -47.72986794877364,
        "Longitude(deg)": 21.322081892893717,
        "Mean Anomaly(deg)": -67.53315973324631,
        "RAAN(deg)": 179.96109224418956,
        "Satellite Name": "Starlink Shell 1 807",
        "Satellite Number": 807,
        "Semi-Major Axis(m)": 6931778.249405717,
        "Time(s)": 750
    }
]